OBJECT_NAME,OBJECT_ID,EPOCH,MEAN_MOTION,ECCENTRICITY,INCLINATION,RA_OF_ASC_NODE,ARG_OF_PERICENTER,MEAN_ANOMALY,EPHEMERIS_TYPE,CLASSIFICATION_TYPE,NORAD_CAT_ID,ELEMENT_SET_NO,REV_AT_EPOCH,BSTAR,MEAN_MOTION_DOT,MEAN_MOTION_DDOT
STARLINK-33638,2025-069D,2026-06-05T04:00:03.000096,15.49309339,.0000907,53.1597,92.6737,80.1473,36.5996,0,U,63436,999,594,-.54578E-3,-.30683E-3,0
STARLINK-33726,2025-069E,2026-06-05T04:00:03.000096,15.49249390,.0001135,53.1592,92.5143,89.5713,108.3024,0,U,63437,999,589,.14294E-2,.79698E-3,0
STARLINK-33681,2025-069F,2026-06-01T04:40:00.742656,15.42155417,.00008495,53.1593,111.4822,61.7836,298.3256,0,U,63438,999,6623,.5277049E-3,.22616E-3,0
STARLINK-33730,2025-069G,2026-06-05T04:00:03.000096,15.35372838,.0001251,53.1592,92.4041,96.0497,157.1258,0,U,63439,999,589,.16006E-2,.55815E-3,0
STARLINK-33743,2025-069H,2026-06-05T04:00:03.000096,15.35398529,.0001085,53.1606,92.8351,74.3587,320.6853,0,U,63440,999,589,.16853E-2,.58863E-3,0
STARLINK-33715,2025-069J,2026-06-05T01:31:34.317696,15.49317893,.0000687,53.1594,92.9635,111.3325,248.7757,0,U,63441,999,6683,.10764E-2,.59895E-3,0
STARLINK-33762,2025-069K,2026-06-05T01:32:11.729760,15.49388614,.0000488,53.1590,92.9766,42.0863,318.0183,0,U,63442,999,6683,.15089E-2,.84619E-3,0
STARLINK-33753,2025-069L,2026-06-05T04:00:03.000096,15.49242652,.0001239,53.1591,92.3581,79.4247,196.7121,0,U,63443,999,589,.16181E-2,.90378E-3,0
STARLINK-33747,2025-069M,2026-06-04T09:48:20.689920,15.42612906,.00006361,53.1587,95.9918,22.2585,337.8449,0,U,63444,999,6667,-.54905007E-2,-.235689E-2,0
STARLINK-33659,2025-069N,2026-06-05T02:04:20.348832,15.49397257,.0001012,53.1604,93.1106,124.6599,235.4506,0,U,63445,999,6678,.18399E-2,.103566E-2,0
STARLINK-33746,2025-069P,2026-06-05T04:00:03.000096,15.49310659,.0001294,53.1591,92.4813,80.1088,132.1279,0,U,63446,999,589,-.60651E-3,-.34036E-3,0
STARLINK-33799,2025-069Q,2026-06-05T02:22:37.456032,15.30205817,.000144,53.1603,96.7377,100.5759,259.5404,0,U,63447,999,6667,.72352E-3,.21134E-3,0
STARLINK-33797,2025-069R,2026-06-02T03:30:30.568896,15.42163688,.00012566,53.1591,106.7563,104.5558,255.5588,0,U,63448,999,6632,.12054698E-2,.52411E-3,0
STARLINK-33798,2025-069S,2026-06-01T22:18:58.837824,15.42219013,.00012877,53.1592,108.2384,69.4037,290.7107,0,U,63449,999,6607,.16324069E-2,.7143E-3,0
STARLINK-33736,2025-069T,2026-06-05T04:00:03.000096,15.35366315,.0000904,53.1596,92.5626,96.0189,75.0382,0,U,63450,999,573,.1125E-2,.39021E-3,0
STARLINK-33740,2025-069U,2026-06-05T04:00:03.000096,15.49243816,.0001022,53.1592,92.5433,90.0690,89.5014,0,U,63451,999,589,.17035E-2,.95236E-3,0
STARLINK-33763,2025-069V,2026-06-05T04:00:03.000096,15.49242053,.0000569,53.1596,92.1956,54.6889,295.2977,0,U,63452,999,589,.17533E-2,.98066E-3,0
STARLINK-33784,2025-069W,2026-06-05T02:21:06.443136,15.30216700,.0002121,53.1602,96.7369,57.5495,302.5711,0,U,63453,999,6678,.7846E-3,.22963E-3,0
STARLINK-33768,2025-069X,2026-06-05T04:00:03.000096,15.49304418,.0001074,53.1591,92.3536,78.1089,191.3683,0,U,63454,999,594,-.40941E-3,-.23147E-3,0
STARLINK-33761,2025-069Y,2026-06-05T04:00:03.000096,15.49248196,.0001157,53.1592,92.3165,83.0805,206.1933,0,U,63455,999,583,.13368E-2,.74451E-3,0
STARLINK-33737,2025-069Z,2026-06-05T04:00:03.000096,15.35354768,.0000706,53.1595,92.5445,70.8053,98.9796,0,U,63456,999,584,.97591E-3,.33764E-3,0
STARLINK-33795,2025-069AA,2026-06-05T04:00:03.000096,15.37049501,.0000921,53.1610,92.7712,129.0973,292.3428,0,U,63457,999,584,-.11173E-1,-.390837E-2,0
STARLINK-33756,2025-069AB,2026-06-05T04:00:03.000096,15.49314789,.0001123,53.1599,92.6715,78.6617,28.1908,0,U,63458,999,594,-.73478E-3,-.41107E-3,0
STARLINK-33780,2025-069AC,2026-06-05T04:00:03.000096,15.35365439,.0001187,53.1599,92.6268,96.3338,33.6943,0,U,63459,999,594,.11157E-2,.38693E-3,0
STARLINK-33679,2025-070A,2026-06-04T01:38:07.045440,15.27634102,.00012027,43.0003,132.2929,246.9711,113.1014,0,U,63460,999,6618,.76945343E-3,.21007E-3,0
STARLINK-33706,2025-070B,2026-06-04T01:43:39.525600,15.27657798,.00013731,43.0011,132.2912,233.3283,126.7443,0,U,63461,999,6618,.11037778E-2,.30309E-3,0
STARLINK-33691,2025-070C,2026-06-05T04:44:27.647808,15.27659147,.0000961,42.9990,125.2532,137.9033,222.1892,0,U,63462,999,6631,.70769E-3,.1931E-3,0
STARLINK-33696,2025-070D,2026-06-02T22:25:59.378592,15.27608827,.0001002,42.9986,138.3756,231.9647,128.1114,0,U,63463,999,6601,.64927E-3,.17663E-3,0
STARLINK-33701,2025-070E,2026-06-05T00:00:02.000160,15.27579775,.0001333,43.0009,127.1020,266.9130,141.4384,0,U,63464,999,588,-.95715E-4,-.2895E-4,0
STARLINK-33685,2025-070F,2026-06-02T07:01:05.189088,15.27595039,.00020973,42.9966,142.1511,161.9856,198.1070,0,U,63465,999,6591,.89737733E-3,.24526E-3,0
STARLINK-33654,2025-070G,2026-06-05T00:40:50.857824,15.27629388,.0001332,43.0005,126.5704,198.6859,161.3944,0,U,63466,999,6633,.75613E-3,.20634E-3,0
STARLINK-33697,2025-070H,2026-06-05T00:44:34.944000,15.27573503,.0001131,43.0009,126.6043,268.2053,91.8669,0,U,63467,999,6633,.6258E-3,.16995E-3,0
STARLINK-33720,2025-070J,2026-06-01T08:53:38.552640,15.27567707,.00007891,42.9988,147.2774,236.8969,123.1807,0,U,63468,999,6577,.682168E-3,.1855E-3,0
STARLINK-33587,2025-070K,2026-06-05T05:06:40.106880,15.27613989,.0001589,42.9988,125.3693,269.3061,90.7609,0,U,63469,999,6636,.52123E-3,.14123E-3,0
STARLINK-33637,2025-070L,2026-06-04T23:52:57.326016,15.27704712,.0001497,42.9981,127.1729,221.4918,138.5820,0,U,63470,999,6632,.13261E-2,.3655E-3,0
STARLINK-33744,2025-070M,2026-06-05T01:04:54.195744,15.27652996,.0001945,43.0015,126.6869,217.2858,142.7859,0,U,63471,999,6633,.86666E-3,.23717E-3,0
STARLINK-33766,2025-070N,2026-06-04T01:45:32.113440,15.27615667,.00016174,43.0007,132.2970,232.0791,127.9915,0,U,63472,999,6618,.69078523E-3,.18816E-3,0
STARLINK-33765,2025-070P,2026-06-05T00:51:56.929248,15.27594810,.0001101,43.0014,126.6256,232.4192,127.6560,0,U,63473,999,6633,.79108E-3,.2158E-3,0
STARLINK-33735,2025-070Q,2026-06-05T05:08:31.428096,15.27628601,.0000207,42.9980,125.3761,248.5452,111.5378,0,U,63474,999,6636,.58604E-3,.15923E-3,0
STARLINK-33731,2025-070R,2026-06-05T01:23:26.086848,15.27612896,.0001366,42.9976,126.7842,190.7760,169.3062,0,U,63475,999,6633,.77371E-3,.21111E-3,0
STARLINK-33718,2025-070S,2026-06-05T00:07:32.607264,15.27648130,.0000869,42.9967,126.3828,215.7291,144.3502,0,U,63476,999,6633,.83061E-3,.22712E-3,0
STARLINK-33630,2025-070T,2026-06-05T05:11:03.372000,15.27659930,.0000747,43.0033,121.9161,232.4435,127.6348,0,U,63477,999,6640,.67496E-3,.18403E-3,0
STARLINK-33695,2025-070U,2026-06-05T04:52:33.355776,15.27628161,.0002119,43.0031,121.8110,276.8973,83.1637,0,U,63478,999,6640,.54343E-3,.14744E-3,0
STARLINK-33713,2025-070V,2026-06-05T04:58:06.902112,15.27569878,.0002171,43.0002,121.8404,281.1518,78.9089,0,U,63479,999,6640,.54633E-3,.14798E-3,0
STARLINK-33721,2025-070W,2026-06-05T05:01:47.406144,15.27459562,.0000954,43.0015,121.8646,210.9539,149.1256,0,U,63480,999,6640,.43333E-2,.120501E-2,0
STARLINK-33639,2025-070X,2026-06-05T02:21:16.898400,15.27568869,.0001098,43.0019,122.7423,255.2836,104.7894,0,U,63481,999,6638,.14124E-2,.38795E-3,0
STARLINK-33688,2025-070Z,2026-06-04T23:23:20.630976,15.27578796,.0001283,43.0023,127.0057,258.0102,102.0606,0,U,63483,999,6632,.69643E-3,.18951E-3,0
STARLINK-33700,2025-070AA,2026-06-05T05:12:12.676032,15.27661710,.0000994,42.9993,125.3796,250.5165,109.5579,0,U,63484,999,6636,.86125E-3,.23572E-3,0
STARLINK-33687,2025-070AB,2026-06-05T00:00:02.000160,15.27596271,.000137,42.9994,126.4097,255.4361,54.7206,0,U,63485,999,587,.46257E-3,.12495E-3,0
STARLINK-33716,2025-070AC,2026-06-05T05:02:58.110720,15.27583269,.0000678,42.9994,125.3411,268.1109,91.9665,0,U,63486,999,6636,.54072E-3,.14649E-3,0
STARLINK-33754,2025-070AD,2026-06-01T23:04:44.648832,15.27587400,.00019783,43.0024,143.9564,282.9361,77.1270,0,U,63487,999,6586,.6831738E-3,.18589E-3,0
STARLINK-33828,2025-071A,2026-06-05T02:28:39.182592,15.40704304,.0000968,53.1598,92.4642,105.8062,254.3050,0,U,63493,999,6615,-.61858E-2,-.24868E-2,0
STARLINK-33819,2025-071B,2026-06-05T02:36:31.585824,15.42147306,.0001169,53.1583,92.4897,86.8106,273.3033,0,U,63494,999,6615,.11273E-2,.48938E-3,0
STARLINK-33845,2025-071C,2026-06-05T02:11:02.967648,15.30211710,.0001749,53.1603,93.7958,108.1073,252.0118,0,U,63495,999,6613,.8612E-3,.25243E-3,0
STARLINK-33829,2025-071D,2026-06-05T00:59:48.509088,15.30187851,.0001393,53.1582,94.1976,132.0212,228.0908,0,U,63496,999,6608,.99032E-3,.29075E-3,0
STARLINK-33815,2025-071E,2026-06-05T02:34:54.149088,15.31734278,.0001215,53.1597,93.9021,99.1287,260.9852,0,U,63497,999,6615,.12746E-2,.39439E-3,0
STARLINK-33833,2025-071F,2026-06-05T02:47:31.005312,15.30206748,.0001039,53.1576,93.9506,80.2307,279.8811,0,U,63498,999,6615,.98555E-3,.2895E-3,0
STARLINK-33534,2025-071G,2026-06-05T00:13:53.618304,15.31719287,.0001727,53.1586,94.0053,151.7589,208.3507,0,U,63499,999,6612,.10791E-2,.33291E-3,0
STARLINK-33838,2025-071H,2026-06-05T02:17:07.571328,15.30206908,.0001609,53.1595,93.8203,106.8496,253.2681,0,U,63500,999,6594,.71653E-3,.20927E-3,0
STARLINK-33837,2025-071J,2026-06-05T02:55:04.007424,15.31738578,.000128,53.1586,93.9897,98.1038,262.0109,0,U,63501,999,6609,.14034E-2,.4349E-3,0
STARLINK-33818,2025-071K,2026-06-05T00:38:30.905376,15.30209550,.000149,53.1603,94.1057,92.0909,268.0262,0,U,63502,999,6614,.83225E-3,.24378E-3,0
STARLINK-33583,2025-071L,2026-06-05T04:00:03.000096,15.49247482,.000116,53.1596,92.6145,71.5411,43.7938,0,U,63503,999,584,.14277E-2,.79595E-3,0
STARLINK-33811,2025-071M,2026-06-05T01:42:19.859616,15.30207026,.0001542,53.1571,94.3797,138.8631,221.2486,0,U,63504,999,6608,.71198E-3,.20791E-3,0
STARLINK-33825,2025-071N,2026-06-05T01:58:53.628960,15.30222134,.0001266,53.1594,93.7365,106.6339,253.4801,0,U,63505,999,6615,.13506E-2,.39883E-3,0
STARLINK-33792,2025-071P,2026-06-05T02:04:58.351872,15.30224674,.0002019,53.1596,93.7661,104.5745,255.5480,0,U,63506,999,6610,.12951E-2,.38224E-3,0
